#cV2022  1  4  0  0  0.00000000    1896   SLR   ECF FIT NSGF
## 2191 172800.00000000   180.00000000 59583 0.0000000000000
+    1   L56  0  0  0  0  0  0  0  0  0  0  0  0  0  0  0  0
+          0  0  0  0  0  0  0  0  0  0  0  0  0  0  0  0  0
+          0  0  0  0  0  0  0  0  0  0  0  0  0  0  0  0  0
+          0  0  0  0  0  0  0  0  0  0  0  0  0  0  0  0  0
+          0  0  0  0  0  0  0  0  0  0  0  0  0  0  0  0  0
++         0  0  0  0  0  0  0  0  0  0  0  0  0  0  0  0  0
++         0  0  0  0  0  0  0  0  0  0  0  0  0  0  0  0  0
++         0  0  0  0  0  0  0  0  0  0  0  0  0  0  0  0  0
++         0  0  0  0  0  0  0  0  0  0  0  0  0  0  0  0  0
++         0  0  0  0  0  0  0  0  0  0  0  0  0  0  0  0  0
%c L  cc UTC ccc cccc cccc cccc cccc ccccc ccccc ccccc ccccc
%c cc cc ccc ccc cccc cccc cccc cccc ccccc ccccc ccccc ccccc
%f  0.0000000  0.000000000  0.00000000000  0.000000000000000
%f  0.0000000  0.000000000  0.00000000000  0.000000000000000
%i    0    0    0    0      0      0      0      0         0
%i    0    0    0    0      0      0      0      0         0
/*                                                          
/* Earth-centered-fixed orbital predictions from SGF ILRS AC
/* The underlying ECF frame is that of IERS/ITRF            
/* Note: Solution based on 4-day long arc                   
/*                                                          
*  2022  1  4 13 36  0.00000000
PL56   1586.524668   6558.278345  -2461.657998
VL56  22712.863000  20396.805000  69019.106000
*  2022  1  4 13 39  0.00000000
PL56   1969.294901   6804.680565  -1183.627362
VL56  19634.594000   6913.934900  72570.593000
*  2022  1  4 13 42  0.00000000
PL56   2287.132654   6806.266337    135.684704
VL56  15518.438000  -6721.094400  73591.997000
*  2022  1  4 13 45  0.00000000
PL56   2522.598408   6564.821857   1450.258382
VL56  10510.388000 -20006.579000  72045.462000
*  2022  1  4 13 48  0.00000000
PL56   2661.290505   6091.046047   2714.220019
VL56   4800.873900 -32457.198000  67985.047000
*  2022  1  4 13 51  0.00000000
PL56   2692.578735   5404.081912   3883.483224
VL56  -1382.926000 -43623.083000  61554.622000
*  2022  1  4 13 54  0.00000000
PL56   2610.182108   4530.718424   4917.319143
VL56  -7786.700200 -53107.296000  52982.119000
*  2022  1  4 13 57  0.00000000
PL56   2412.558986   3504.299000   5779.790773
VL56 -14140.066000 -60580.716000  42570.103000
*  2022  1  4 14  0  0.00000000
PL56   2103.093485   2363.396796   6440.986175
VL56 -20167.962000 -65792.842000  30683.432000
*  2022  1  4 14  3  0.00000000
PL56   1690.079916   1150.330215   6878.023493
VL56 -25601.816000 -68579.038000  17736.010000
*  2022  1  4 14  6  0.00000000
PL56   1186.502775    -90.428329   7075.804665
VL56 -30190.826000 -68864.903000   4176.247100
*  2022  1  4 14  9  0.00000000
PL56    609.623394  -1313.884265   7027.502921
VL56 -33712.252000 -66666.814000  -9527.587500
*  2022  1  4 14 12  0.00000000
PL56    -19.613583  -2476.146822   6734.785451
VL56 -35981.145000 -62090.543000 -22902.622000
*  2022  1  4 14 15  0.00000000
PL56   -677.338494  -3536.000996   6207.759332
VL56 -36858.694000 -55326.591000 -35486.634000
*  2022  1  4 14 18  0.00000000
PL56  -1337.651732  -4456.371198   5464.640008
VL56 -36259.125000 -46642.924000 -46843.177000
*  2022  1  4 14 21  0.00000000
PL56  -1973.627626  -5205.632329   4531.160574
VL56 -34155.079000 -36375.570000 -56575.730000
*  2022  1  4 14 24  0.00000000
PL56  -2558.403498  -5758.736770   3439.724829
VL56 -30581.288000 -24917.136000 -64342.090000
*  2022  1  4 14 27  0.00000000
PL56  -3066.307949  -6098.102583   2228.305339
VL56 -25635.210000 -12701.812000 -69867.739000
*  2022  1  4 14 30  0.00000000
PL56  -3473.974448  -6214.214745    939.124081
VL56 -19474.881000   -188.839420 -72956.621000
*  2022  1  4 14 33  0.00000000
PL56  -3761.389197  -6105.913973   -382.837312
VL56 -12313.723000  12155.668000 -73499.243000
*  2022  1  4 14 36  0.00000000
PL56  -3912.822286  -5780.354842  -1691.443351
VL56  -4412.758700  23877.190000 -71477.368000
*  2022  1  4 14 39  0.00000000
PL56  -3917.594091  -5252.629556  -2941.060834
VL56   3929.793200  34551.237000 -66964.810000
*  2022  1  4 14 42  0.00000000
PL56  -3770.636458  -4545.073733  -4088.190845
VL56  12390.845000  43800.082000 -60123.985000
*  2022  1  4 14 45  0.00000000
PL56  -3472.820741  -3686.294791  -5093.002957
VL56  20635.790000  51306.619000 -51198.610000
*  2022  1  4 14 48  0.00000000
PL56  -3031.043150  -2709.979515  -5920.711659
VL56  28332.043000  56825.086000 -40503.633000
*  2022  1  4 14 51  0.00000000
PL56  -2458.069683  -1653.540067  -6542.750637
VL56  35162.131000  60188.228000 -28412.957000
*  2022  1  4 14 54  0.00000000
PL56  -1772.150258   -556.659992  -6937.713711
VL56  40836.184000  61311.308000 -15345.858000
*  2022  1  4 14 57  0.00000000
PL56   -996.420140    540.200475  -7092.039224
VL56  45102.972000  60192.609000  -1752.241600
*  2022  1  4 15  0  0.00000000
PL56   -158.116262   1597.282297  -7000.433038
VL56  47759.489000  56911.198000  11901.565000
*  2022  1  4 15  3  0.00000000
PL56    712.368867   2576.947112  -6666.033908
VL56  48659.368000  51622.744000  25147.248000
*  2022  1  4 15  6  0.00000000
PL56   1582.572000   3445.002338  -6100.320311
VL56  47719.999000  44553.260000  37529.035000
*  2022  1  4 15  9  0.00000000
PL56   2419.155496   4171.895108  -5322.751053
VL56  44927.477000  35990.627000  48618.420000
*  2022  1  4 15 12  0.00000000
PL56   3189.174579   4733.734294  -4360.143581
VL56  40339.614000  26274.194000  58028.587000
*  2022  1  4 15 15  0.00000000
PL56   3861.374349   5113.109369  -3245.798039
VL56  34086.216000  15782.455000  65428.333000
*  2022  1  4 15 18  0.00000000
PL56   4407.467632   5299.669494  -2018.379919
VL56  26366.506000   4918.781500  70554.723000
*  2022  1  4 15 21  0.00000000
PL56   4803.336358   5290.430892   -720.589442
VL56  17443.232000  -5904.294900  73223.902000
*  2022  1  4 15 24  0.00000000
PL56   5030.097125   5089.794347    602.338182
VL56   7633.491400 -16281.620000  73339.120000
*  2022  1  4 15 27  0.00000000
PL56   5074.973308   4709.263598   1904.243453
VL56  -2703.476700 -25831.733000  70894.809000
*  2022  1  4 15 30  0.00000000
PL56   4931.931304   4166.881511   3139.693767
VL56 -13180.178000 -34211.975000  65977.160000
*  2022  1  4 15 33  0.00000000
PL56   4602.048219   3486.406249   4265.611770
VL56 -23396.773000 -41132.007000  58760.659000
*  2022  1  4 15 36  0.00000000
PL56   4093.587223   2696.268418   5242.803068
VL56 -32957.324000 -46364.497000  49500.765000
*  2022  1  4 15 39  0.00000000
PL56   3421.786292   1828.368100   6037.323644
VL56 -41485.448000 -49752.251000  38523.427000
*  2022  1  4 15 42  0.00000000
PL56   2608.369267    916.769609   6621.639344
VL56 -48638.977000 -51212.292000  26212.719000
*  2022  1  4 15 45  0.00000000
PL56   1680.812265     -3.646007   6975.541350
VL56 -54122.953000 -50736.705000  12996.164000
*  2022  1  4 15 48  0.00000000
PL56    671.396496   -898.512946   7086.807353
VL56 -57700.234000 -48390.229000   -668.918770
*  2022  1  4 15 51  0.00000000
PL56   -383.923638  -1735.258022   6951.599190
VL56 -59201.161000 -44306.373000 -14310.788000
*  2022  1  4 15 54  0.00000000
PL56  -1446.800652  -2484.282041   6574.583890
VL56 -58530.531000 -38680.841000 -27458.820000
*  2022  1  4 15 57  0.00000000
PL56  -2477.878438  -3120.004781   5968.779133
VL56 -55671.962000 -31762.885000 -39658.157000
*  2022  1  4 16  0  0.00000000
PL56  -3438.240920  -3621.744986   5155.137174
VL56 -50691.083000 -23845.873000 -50484.446000
*  2022  1  4 16  3  0.00000000
PL56  -4290.892820  -3974.413405   4161.862554
VL56 -43735.396000 -15255.729000 -59558.765000
*  2022  1  4 16  6  0.00000000
PL56  -5002.207405  -4168.984985   3023.464476
VL56 -35030.786000  -6338.093200 -66561.651000
*  2022  1  4 16  9  0.00000000
PL56  -5543.279889  -4202.732218   1779.577163
VL56 -24874.685000   2555.250400 -71244.998000
*  2022  1  4 16 12  0.00000000
PL56  -5891.131908  -4079.208227    473.577549
VL56 -13626.147000  11080.644000 -73442.504000
*  2022  1  4 16 15  0.00000000
PL56  -6029.703571  -3807.972089   -848.953860
VL56  -1692.396700  18916.710000 -73076.549000
*  2022  1  4 16 18  0.00000000
PL56  -5950.580795  -3404.067963  -2141.866631
VL56  10487.135000  25777.470000 -70161.685000
*  2022  1  4 16 21  0.00000000
PL56  -5653.414735  -2887.280625  -3360.098398
VL56  22458.785000  31423.846000 -64803.676000
*  2022  1  4 16 24  0.00000000
PL56  -5146.014971  -2281.209078  -4461.277764
VL56  33772.721000  35672.337000 -57194.673000
*  2022  1  4 16 27  0.00000000
PL56  -4444.120250  -1612.208598  -5407.208402
VL56  44000.628000  38400.932000 -47604.834000
*  2022  1  4 16 30  0.00000000
PL56  -3570.862812   -908.253954  -6165.180450
VL56  52751.883000  39551.943000 -36371.550000
*  2022  1  4 16 33  0.00000000
PL56  -2555.955870   -197.776197  -6709.064895
VL56  59688.051000  39132.096000 -23886.371000
*  2022  1  4 16 36  0.00000000
PL56  -1434.645493    491.474299  -7020.163074
VL56  64534.612000  37209.629000 -10580.944000
*  2022  1  4 16 39  0.00000000
PL56   -246.471188   1133.493491  -7087.798433
VL56  67090.350000  33909.384000   3087.443000
*  2022  1  4 16 42  0.00000000
PL56    966.119276   1704.986200  -6909.648984
VL56  67234.357000  29406.267000  16650.190000
*  2022  1  4 16 45  0.00000000
PL56   2159.264940   2186.198333  -6491.823932
VL56  64931.252000  23917.445000  29641.551000
*  2022  1  4 16 48  0.00000000
PL56   3289.261848   2561.597541  -5848.676025
VL56  60234.076000  17693.234000  41613.698000
*  2022  1  4 16 51  0.00000000
PL56   4314.155448   2820.378789  -5002.346542
VL56  53283.874000  11006.789000  52151.474000
*  2022  1  4 16 54  0.00000000
PL56   5195.307111   2956.780398  -3982.054237
VL56  44307.323000   4143.441000  60886.055000
*  2022  1  4 16 57  0.00000000
PL56   5898.881610   2970.198063  -2823.131053
VL56  33610.204000  -2611.026600  67509.172000
EOF
